{
  "type": "FeatureCollection",
  "name": "Tafelberg_Schaduwwaaier_GIS",
  "crs": {
    "type": "name",
    "properties": {
      "name": "urn:ogc:def:crs:OGC:1.3:CRS84"
    }
  },
  "features": [
    {
      "type": "Feature",
      "properties": {
        "naam": "Tafelberg Top (Kooltjesberg)",
        "hoogte_m_nap": 39.2,
        "type": "Top / Uitkijkpunt"
      },
      "geometry": {
        "type": "Point",
        "coordinates": [
          5.16443,
          52.29662
        ]
      }
    },
    {
      "type": "Feature",
      "properties": {
        "naam": "Diagonale Wal / Perceelsgrens",
        "lengte_m": 63.24,
        "hoogte_m": 2.5
      },
      "geometry": {
        "type": "LineString",
        "coordinates": [
          [
            5.1639893,
            52.2967547
          ],
          [
            5.1648707,
            52.2969344
          ]
        ]
      }
    },
    {
      "type": "Feature",
      "properties": {
        "tijd_cest": "07:00",
        "schijnbare_elevatie_deg": 5.56,
        "zon_azimut_deg": 71.89,
        "schaduw_lengte_m": 484.11,
        "schaduw_azimut_deg": 251.89
      },
      "geometry": {
        "type": "LineString",
        "coordinates": [
          [
            5.16443,
            52.29662
          ],
          [
            5.1576713,
            52.2952682
          ]
        ]
      }
    },
    {
      "type": "Feature",
      "properties": {
        "tijd_cest": "08:00",
        "schijnbare_elevatie_deg": 14.47,
        "zon_azimut_deg": 83.45,
        "schaduw_lengte_m": 155.7,
        "schaduw_azimut_deg": 263.45
      },
      "geometry": {
        "type": "LineString",
        "coordinates": [
          [
            5.16443,
            52.29662
          ],
          [
            5.1621579,
            52.2964605
          ]
        ]
      }
    },
    {
      "type": "Feature",
      "properties": {
        "tijd_cest": "09:00",
        "schijnbare_elevatie_deg": 23.57,
        "zon_azimut_deg": 95.32,
        "schaduw_lengte_m": 88.68,
        "schaduw_azimut_deg": 275.32
      },
      "geometry": {
        "type": "LineString",
        "coordinates": [
          [
            5.16443,
            52.29662
          ],
          [
            5.163133,
            52.2966939
          ]
        ]
      }
    },
    {
      "type": "Feature",
      "properties": {
        "tijd_cest": "10:00",
        "schijnbare_elevatie_deg": 32.5,
        "zon_azimut_deg": 108.21,
        "schaduw_lengte_m": 59.37,
        "schaduw_azimut_deg": 288.21
      },
      "geometry": {
        "type": "LineString",
        "coordinates": [
          [
            5.16443,
            52.29662
          ],
          [
            5.1636016,
            52.2967867
          ]
        ]
      }
    },
    {
      "type": "Feature",
      "properties": {
        "tijd_cest": "11:00",
        "schijnbare_elevatie_deg": 40.74,
        "zon_azimut_deg": 123.06,
        "schaduw_lengte_m": 42.97,
        "schaduw_azimut_deg": 303.06
      },
      "geometry": {
        "type": "LineString",
        "coordinates": [
          [
            5.16443,
            52.29662
          ],
          [
            5.1639011,
            52.2968305
          ]
        ]
      }
    },
    {
      "type": "Feature",
      "properties": {
        "tijd_cest": "12:00",
        "schijnbare_elevatie_deg": 47.55,
        "zon_azimut_deg": 140.92,
        "schaduw_lengte_m": 33.04,
        "schaduw_azimut_deg": 320.92
      },
      "geometry": {
        "type": "LineString",
        "coordinates": [
          [
            5.16443,
            52.29662
          ],
          [
            5.1641241,
            52.2968504
          ]
        ]
      }
    },
    {
      "type": "Feature",
      "properties": {
        "tijd_cest": "13:00",
        "schijnbare_elevatie_deg": 51.9,
        "zon_azimut_deg": 162.35,
        "schaduw_lengte_m": 27.69,
        "schaduw_azimut_deg": 342.35
      },
      "geometry": {
        "type": "LineString",
        "coordinates": [
          [
            5.16443,
            52.29662
          ],
          [
            5.1643067,
            52.296857
          ]
        ]
      }
    },
    {
      "type": "Feature",
      "properties": {
        "tijd_cest": "13:35",
        "schijnbare_elevatie_deg": 52.89,
        "zon_azimut_deg": 176.5,
        "schaduw_lengte_m": 26.55,
        "schaduw_azimut_deg": 356.5
      },
      "geometry": {
        "type": "LineString",
        "coordinates": [
          [
            5.16443,
            52.29662
          ],
          [
            5.1644062,
            52.2968581
          ]
        ]
      }
    },
    {
      "type": "Feature",
      "properties": {
        "tijd_cest": "14:00",
        "schijnbare_elevatie_deg": 52.81,
        "zon_azimut_deg": 186.1,
        "schaduw_lengte_m": 26.64,
        "schaduw_azimut_deg": 6.1
      },
      "geometry": {
        "type": "LineString",
        "coordinates": [
          [
            5.16443,
            52.29662
          ],
          [
            5.1644716,
            52.296858
          ]
        ]
      }
    },
    {
      "type": "Feature",
      "properties": {
        "tijd_cest": "15:00",
        "schijnbare_elevatie_deg": 50.03,
        "zon_azimut_deg": 208.96,
        "schaduw_lengte_m": 29.91,
        "schaduw_azimut_deg": 28.96
      },
      "geometry": {
        "type": "LineString",
        "coordinates": [
          [
            5.16443,
            52.29662
          ],
          [
            5.1646427,
            52.2968551
          ]
        ]
      }
    },
    {
      "type": "Feature",
      "properties": {
        "tijd_cest": "16:00",
        "schijnbare_elevatie_deg": 44.27,
        "zon_azimut_deg": 228.56,
        "schaduw_lengte_m": 37.52,
        "schaduw_azimut_deg": 48.56
      },
      "geometry": {
        "type": "LineString",
        "coordinates": [
          [
            5.16443,
            52.29662
          ],
          [
            5.1648432,
            52.2968431
          ]
        ]
      }
    },
    {
      "type": "Feature",
      "properties": {
        "tijd_cest": "17:00",
        "schijnbare_elevatie_deg": 36.61,
        "zon_azimut_deg": 244.74,
        "schaduw_lengte_m": 50.37,
        "schaduw_azimut_deg": 64.74
      },
      "geometry": {
        "type": "LineString",
        "coordinates": [
          [
            5.16443,
            52.29662
          ],
          [
            5.1650991,
            52.2968131
          ]
        ]
      }
    },
    {
      "type": "Feature",
      "properties": {
        "tijd_cest": "18:00",
        "schijnbare_elevatie_deg": 27.92,
        "zon_azimut_deg": 258.46,
        "schaduw_lengte_m": 72.13,
        "schaduw_azimut_deg": 78.46
      },
      "geometry": {
        "type": "LineString",
        "coordinates": [
          [
            5.16443,
            52.29662
          ],
          [
            5.1654681,
            52.2967496
          ]
        ]
      }
    },
    {
      "type": "Feature",
      "properties": {
        "tijd_cest": "19:00",
        "schijnbare_elevatie_deg": 18.83,
        "zon_azimut_deg": 270.71,
        "schaduw_lengte_m": 115.2,
        "schaduw_azimut_deg": 90.71
      },
      "geometry": {
        "type": "LineString",
        "coordinates": [
          [
            5.16443,
            52.29662
          ],
          [
            5.1661221,
            52.2966072
          ]
        ]
      }
    },
    {
      "type": "Feature",
      "properties": {
        "tijd_cest": "20:00",
        "schijnbare_elevatie_deg": 9.81,
        "zon_azimut_deg": 282.34,
        "schaduw_lengte_m": 242.8,
        "schaduw_azimut_deg": 102.34
      },
      "geometry": {
        "type": "LineString",
        "coordinates": [
          [
            5.16443,
            52.29662
          ],
          [
            5.1679139,
            52.2961539
          ]
        ]
      }
    },
    {
      "type": "Feature",
      "properties": {
        "tijd_cest": "21:00",
        "schijnbare_elevatie_deg": 1.28,
        "zon_azimut_deg": 293.96,
        "schaduw_lengte_m": 35608.7,
        "schaduw_azimut_deg": 113.96
      },
      "geometry": {
        "type": "LineString",
        "coordinates": [
          [
            5.16443,
            52.29662
          ],
          [
            5.1711414,
            52.294796
          ]
        ]
      }
    },
    {
      "type": "Feature",
      "properties": {
        "naam": "Schaduwwaaier Daglichtzone (09:00 - 19:00 CEST)",
        "datum": "2026-08-12",
        "beschrijving": "Ruimtelijke schaduw-enveloppe over de Tafelbergheide"
      },
      "geometry": {
        "type": "Polygon",
        "coordinates": [
          [
            [
              5.16443,
              52.29662
            ],
            [
              5.163133,
              52.2966939
            ],
            [
              5.1636016,
              52.2967867
            ],
            [
              5.1639011,
              52.2968305
            ],
            [
              5.1641241,
              52.2968504
            ],
            [
              5.1643067,
              52.296857
            ],
            [
              5.1644062,
              52.2968581
            ],
            [
              5.1644716,
              52.296858
            ],
            [
              5.1646427,
              52.2968551
            ],
            [
              5.1648432,
              52.2968431
            ],
            [
              5.1650991,
              52.2968131
            ],
            [
              5.1654681,
              52.2967496
            ],
            [
              5.1661221,
              52.2966072
            ],
            [
              5.16443,
              52.29662
            ]
          ]
        ]
      }
    }
  ]
}